NORAD_CAT_ID,OBJECT_NAME,OBJECT_TYPE,EPOCH,MEAN_MOTION,ECCENTRICITY,INCLINATION,RA_OF_ASC_NODE,ARG_OF_PERICENTER,MEAN_ANOMALY,BSTAR,MEAN_MOTION_DOT,MEAN_MOTION_DDOT,TLE_LINE0,TLE_LINE1,TLE_LINE2,SEMIMAJOR_AXIS,PERIOD,APOGEE,PERIGEE,DECAYED
54798.0,STARLINK-5420,PAYLOAD,2023-11-14 20:54:37,15.08835612,0.0001806,53.217,215.9078,119.8191,240.2981,-0.00011318,-2.089e-05,0.0,0 STARLINK-5420,1 54798U 22175AS  23318.87126697 -.00002089  00000-0 -11318-3 0  9991,2 54798  53.2170 215.9078 0001806 119.8191 240.2981 15.08835612 52585,6917.894,95.438,541.008,538.509,0.0
54798.0,STARLINK-5420,PAYLOAD,2023-11-15 00:05:23,15.08859002,0.0001361,53.215,215.3201,91.5933,268.5215,0.00026932,4.003e-05,0.0,0 STARLINK-5420,1 54798U 22175AS  23319.00373872  .00004003  00000-0  26932-3 0  9990,2 54798  53.2150 215.3201 0001361  91.5933 268.5215 15.08859002 52606,6917.822,95.436,540.629,538.746,0.0
54798.0,STARLINK-5420,PAYLOAD,2023-11-15 20:45:24,15.08836462,0.0001747,53.217,211.4479,129.7698,230.3449,2.0116e-05,3.2e-07,0.0,0 STARLINK-5420,1 54798U 22175AS  23319.86486702  .00000032  00000-0  20116-4 0  9998,2 54798  53.2170 211.4479 0001747 129.7698 230.3449 15.08836462 52737,6917.891,95.438,540.965,538.548,0.0
54798.0,STARLINK-5420,PAYLOAD,2023-11-16 03:06:56,15.08848288,0.0001483,53.2168,210.2626,94.0877,266.0285,0.00010103,1.321e-05,0.0,0 STARLINK-5420,1 54798U 22175AS  23320.12982262  .00001321  00000-0  10103-3 0  9997,2 54798  53.2168 210.2626 0001483  94.0877 266.0285 15.08848288 50613,6917.855,95.437,540.746,538.694,0.0
54798.0,STARLINK-5420,PAYLOAD,2023-11-16 17:25:25,15.08846654,0.0001727,53.2179,207.586,80.11,280.0087,-6.6936e-05,-1.353e-05,0.0,0 STARLINK-5420,1 54798U 22175AS  23320.72599102 -.00001353  00000-0 -66936-4 0  9993,2 54798  53.2179 207.5860 0001727  80.1100 280.0087 15.08846654 50701,6917.86,95.437,540.92,538.53,0.0
54798.0,STARLINK-5420,PAYLOAD,2023-11-17 01:22:21,15.0884779,0.0001874,53.2182,206.1009,66.9765,293.1425,-3.8946e-05,-9.08e-06,0.0,0 STARLINK-5420,1 54798U 22175AS  23321.05718938 -.00000908  00000-0 -38946-4 0  9995,2 54798  53.2182 206.1009 0001874  66.9765 293.1425 15.08847790 52915,6917.857,95.437,541.018,538.425,0.0
54798.0,STARLINK-5420,PAYLOAD,2023-11-18 01:13:08,15.08844629,0.0001527,53.2161,201.6396,94.4903,265.6263,2.0288e-05,3.5e-07,0.0,0 STARLINK-5420,1 54798U 22175AS  23322.05079045  .00000035  00000-0  20288-4 0  9994,2 54798  53.2161 201.6396 0001527  94.4903 265.6263 15.08844629 50905,6917.866,95.437,540.788,538.675,0.0
54798.0,STARLINK-5420,PAYLOAD,2023-11-18 09:10:03,15.08843687,0.0001508,53.2154,200.1523,89.4083,270.7082,6.4362e-05,7.37e-06,0.0,0 STARLINK-5420,1 54798U 22175AS  23322.38199007  .00000737  00000-0  64362-4 0  9991,2 54798  53.2154 200.1523 0001508  89.4083 270.7082 15.08843687 53110,6917.869,95.437,540.777,538.691,0.0
54798.0,STARLINK-5420,PAYLOAD,2023-11-19 09:00:51,15.08841599,0.0001574,53.217,195.6933,86.9051,273.2121,0.00010584,1.397e-05,0.0,0 STARLINK-5420,1 54798U 22175AS  23323.37559128  .00001397  00000-0  10584-3 0  9994,2 54798  53.2170 195.6933 0001574  86.9051 273.2121 15.08841599 51100,6917.876,95.437,540.829,538.652,0.0
54798.0,STARLINK-5420,PAYLOAD,2023-11-19 21:43:55,15.08848122,0.0001311,53.2157,193.3125,103.0353,257.0785,5.4315e-05,5.77e-06,0.0,0 STARLINK-5420,1 54798U 22175AS  23323.90550536  .00000577  00000-0  54315-4 0  9997,2 54798  53.2157 193.3125 0001311 103.0353 257.0785 15.08848122 53341,6917.856,95.437,540.627,538.814,0.0
54798.0,STARLINK-5420,PAYLOAD,2023-11-20 08:51:38,15.08840229,0.0001675,53.217,191.2326,85.7987,274.3197,2.8329e-05,1.63e-06,0.0,0 STARLINK-5420,1 54798U 22175AS  23324.36919226  .00000163  00000-0  28329-4 0  9990,2 54798  53.2170 191.2326 0001675  85.7987 274.3197 15.08840229 53415,6917.88,95.438,540.903,538.586,0.0
54798.0,STARLINK-5420,PAYLOAD,2023-11-20 19:59:20,15.08839982,0.0001486,53.2152,189.1514,86.5965,273.5197,5.9195e-05,6.54e-06,0.0,0 STARLINK-5420,1 54798U 22175AS  23324.83287126  .00000654  00000-0  59195-4 0  9999,2 54798  53.2152 189.1514 0001486  86.5965 273.5197 15.08839982 51328,6917.88,95.438,540.773,538.717,0.0
54798.0,STARLINK-5420,PAYLOAD,2023-11-20 21:34:43,15.08841205,0.0001479,53.2156,188.8527,91.8488,268.2674,6.3145e-05,7.17e-06,0.0,0 STARLINK-5420,1 54798U 22175AS  23324.89910976  .00000717  00000-0  63145-4 0  9991,2 54798  53.2156 188.8527 0001479  91.8488 268.2674 15.08841205 53495,6917.877,95.437,540.765,538.719,0.0
54798.0,STARLINK-5420,PAYLOAD,2023-11-21 08:42:25,15.08841248,0.0001448,53.2158,186.7704,93.5999,266.5159,5.7019e-05,6.2e-06,0.0,0 STARLINK-5420,1 54798U 22175AS  23325.36279012  .00000620  00000-0  57019-4 0  9999,2 54798  53.2158 186.7704 0001448  93.5999 266.5159 15.08841248 53567,6917.877,95.437,540.743,538.74,0.0
54798.0,STARLINK-5420,PAYLOAD,2023-11-21 21:25:29,15.08850873,0.0001475,53.2155,184.3917,91.3932,268.7229,2.4811e-05,1.07e-06,0.0,0 STARLINK-5420,1 54798U 22175AS  23325.89270572  .00000107  00000-0  24811-4 0  9993,2 54798  53.2155 184.3917 0001475  91.3932 268.7229 15.08850873 53642,6917.847,95.437,540.733,538.692,0.0
54798.0,STARLINK-5420,PAYLOAD,2023-11-22 00:36:16,15.08847596,0.0001562,53.2153,183.7965,92.8817,267.2354,7.5741e-05,9.18e-06,0.0,0 STARLINK-5420,1 54798U 22175AS  23326.02518723  .00000918  00000-0  75741-4 0  9990,2 54798  53.2153 183.7965 0001562  92.8817 267.2354 15.08847596 51505,6917.857,95.437,540.803,538.642,0.0
54798.0,STARLINK-5420,PAYLOAD,2023-11-22 21:16:16,15.08847363,0.0001554,53.2146,179.9303,93.7526,266.3643,0.00018218,2.613e-05,0.0,0 STARLINK-5420,1 54798U 22175AS  23326.88630642  .00002613  00000-0  18218-3 0  9998,2 54798  53.2146 179.9303 0001554  93.7526 266.3643 15.08847363 53794,6917.858,95.437,540.798,538.648,0.0
54798.0,STARLINK-5420,PAYLOAD,2023-11-23 14:45:32,15.08832006,0.0001663,53.2141,176.6592,100.2758,259.8422,-4.5089e-05,-1.005e-05,0.0,0 STARLINK-5420,1 54798U 22175AS  23327.61495488 -.00001005  00000-0 -45089-4 0  9990,2 54798  53.2141 176.6592 0001663 100.2758 259.8422 15.08832006 53908,6917.905,95.438,540.92,538.619,0.0
54798.0,STARLINK-5420,PAYLOAD,2023-11-23 19:31:41,15.08828465,0.0001428,53.2143,175.7674,96.4018,263.7137,-8.6278e-05,-1.66e-05,0.0,0 STARLINK-5420,1 54798U 22175AS  23327.81367781 -.00001660  00000-0 -86278-4 0  9998,2 54798  53.2143 175.7674 0001428  96.4018 263.7137 15.08828465 51779,6917.916,95.438,540.769,538.793,0.0
54798.0,STARLINK-5420,PAYLOAD,2023-11-24 13:00:56,15.08832381,0.0001434,53.215,172.4972,95.258,264.8576,2.6887e-05,1.4e-06,0.0,0 STARLINK-5420,1 54798U 22175AS  23328.54232078  .00000140  00000-0  26887-4 0  9999,2 54798  53.2150 172.4972 0001434  95.2580 264.8576 15.08832381 54044,6917.904,95.438,540.761,538.777,0.0
54798.0,STARLINK-5420,PAYLOAD,2023-11-24 19:22:28,15.08836977,0.0001433,53.2152,171.3093,93.7023,266.4133,0.00014068,1.952e-05,0.0,0 STARLINK-5420,1 54798U 22175AS  23328.80727979  .00001952  00000-0  14068-3 0  9996,2 54798  53.2152 171.3093 0001433  93.7023 266.4133 15.08836977 54088,6917.89,95.438,540.746,538.763,0.0
54798.0,STARLINK-5420,PAYLOAD,2023-11-25 00:08:38,15.08840371,0.0001477,53.2149,170.4162,102.2471,257.8686,0.00023466,3.449e-05,0.0,0 STARLINK-5420,1 54798U 22175AS  23329.00599950  .00003449  00000-0  23466-3 0  9990,2 54798  53.2149 170.4162 0001477 102.2471 257.8686 15.08840371 54116,6917.879,95.438,540.766,538.722,0.0
54798.0,STARLINK-5420,PAYLOAD,2023-11-25 20:48:38,15.0886463,0.0001367,53.2135,166.5503,88.0378,272.0771,0.00085246,0.00013314,0.0,0 STARLINK-5420,1 54798U 22175AS  23329.86711518  .00013314  00000-0  85246-3 0  9996,2 54798  53.2135 166.5503 0001367  88.0378 272.0771 15.08864630 54243,6917.805,95.436,540.616,538.724,0.0
54798.0,STARLINK-5420,PAYLOAD,2023-11-26 12:42:30,15.08844643,0.0001272,53.2133,163.5762,100.512,259.6015,8.9795e-05,1.142e-05,0.0,0 STARLINK-5420,1 54798U 22175AS  23330.52951621  .00001142  00000-0  89795-4 0  9992,2 54798  53.2133 163.5762 0001272 100.5120 259.6015 15.08844643 54340,6917.866,95.437,540.611,538.851,0.0
54798.0,STARLINK-5420,PAYLOAD,2023-11-26 19:04:03,15.08833755,0.000147,53.2152,162.3843,101.0466,259.0691,-6.6339e-05,-1.343e-05,0.0,0 STARLINK-5420,1 54798U 22175AS  23330.79448162 -.00001343  00000-0 -66339-4 0  9996,2 54798  53.2152 162.3843 0001470 101.0466 259.0691 15.08833755 52228,6917.899,95.438,540.781,538.748,0.0
54798.0,STARLINK-5420,PAYLOAD,2023-11-26 20:39:26,15.08829203,0.0001432,53.2147,162.0888,90.8386,269.2771,-0.00017675,-3.099e-05,0.0,0 STARLINK-5420,1 54798U 22175AS  23330.86072448 -.00003099  00000-0 -17675-3 0  9992,2 54798  53.2147 162.0888 0001432  90.8386 269.2771 15.08829203 54397,6917.913,95.438,540.769,538.788,0.0
54798.0,STARLINK-5420,PAYLOAD,2023-11-27 12:33:18,15.08829411,0.000135,53.2148,159.1139,105.7167,254.3974,-0.00010085,-1.892e-05,0.0,0 STARLINK-5420,1 54798U 22175AS  23331.52312943 -.00001892  00000-0 -10085-3 0  9990,2 54798  53.2148 159.1139 0001350 105.7167 254.3974 15.08829411 54498,6917.913,95.438,540.712,538.844,0.0
54798.0,STARLINK-5420,PAYLOAD,2023-11-27 22:05:37,15.08832574,0.0001355,53.2145,157.33,106.9524,253.1617,0.00011391,1.525e-05,0.0,0 STARLINK-5420,1 54798U 22175AS  23331.92057017  .00001525  00000-0  11391-3 0  9994,2 54798  53.2145 157.3300 0001355 106.9524 253.1617 15.08832574 54552,6917.903,95.438,540.705,538.831,0.0
54798.0,STARLINK-5420,PAYLOAD,2023-11-28 12:24:05,15.08835587,0.0001366,53.2142,154.6548,100.5364,259.5782,0.00029136,4.352e-05,0.0,0 STARLINK-5420,1 54798U 22175AS  23332.51673172  .00004352  00000-0  29136-3 0  9993,2 54798  53.2142 154.6548 0001366 100.5364 259.5782 15.08835587 54647,6917.894,95.438,540.704,538.814,0.0
54798.0,STARLINK-5420,PAYLOAD,2023-11-28 18:45:38,15.08842839,0.0001372,53.2143,153.4654,99.3474,260.7673,0.00038165,5.792e-05,0.0,0 STARLINK-5420,1 54798U 22175AS  23332.78169017  .00005792  00000-0  38165-3 0  9991,2 54798  53.2143 153.4654 0001372  99.3474 260.7673 15.08842839 54682,6917.872,95.437,540.686,538.788,0.0
